{"type": "FeatureCollection", "features": [ {"type": "Feature", "properties": {"norad_id": 40534, "name": "GPS BIIF-9  (PRN 26)", "group": "gps-ops", "lat": -46.61281866001015, "lon": 84.55967392403551, "alt_km": 20439.892971257625, "timestamp": "2025-12-04T10:51:50.364573+00:00", "meta": {"OBJECT_NAME": "GPS BIIF-9  (PRN 26)", "OBJECT_ID": "2015-013A", "EPOCH": "2025-12-02T02:51:32.793120", "MEAN_MOTION": 2.00563104, "ECCENTRICITY": 0.0106593, "INCLINATION": 53.1996, "RA_OF_ASC_NODE": 212.3301, "ARG_OF_PERICENTER": 38.2187, "MEAN_ANOMALY": 322.6251, "EPHEMERIS_TYPE": 0, "CLASSIFICATION_TYPE": "U", "NORAD_CAT_ID": 40534, "ELEMENT_SET_NO": 999, "REV_AT_EPOCH": 7787, "BSTAR": 0, "MEAN_MOTION_DOT": 7.3e-07, "MEAN_MOTION_DDOT": 0}, "tle": {"line1": "1 40534U 15013A   25336.11912955  .00000073  00000+0  00000+0 0  9996", "line2": "2 40534  53.1996 212.3301 0106593  38.2187 322.6251  2.00563104 77877"}}, "geometry": {"type": "Point", "coordinates": [84.55967392403551, -46.61281866001015]}}, {"type": "Feature", "properties": {"norad_id": 40730, "name": "GPS BIIF-10 (PRN 08)", "group": "gps-ops", "lat": 38.20492208626191, "lon": 60.4452854493389, "alt_km": 20243.763650078843, "timestamp": "2025-12-04T10:51:50.364584+00:00", "meta": {"OBJECT_NAME": "GPS BIIF-10 (PRN 08)", "OBJECT_ID": "2015-033A", "EPOCH": "2025-12-03T06:39:47.619936", "MEAN_MOTION": 2.00565936, "ECCENTRICITY": 0.01103737, "INCLINATION": 54.139, "RA_OF_ASC_NODE": 275.1622, "ARG_OF_PERICENTER": 26.5739, "MEAN_ANOMALY": 333.9862, "EPHEMERIS_TYPE": 0, "CLASSIFICATION_TYPE": "U", "NORAD_CAT_ID": 40730, "ELEMENT_SET_NO": 999, "REV_AT_EPOCH": 7606, "BSTAR": 0, "MEAN_MOTION_DOT": -3.5e-07, "MEAN_MOTION_DDOT": 0}, "tle": {"line1": "1 40730U 15033A   25337.27763449 -.00000035  00000+0  00000+0 0  9995", "line2": "2 40730  54.1390 275.1622 0110373  26.5739 333.9862  2.00565936 76069"}}, "geometry": {"type": "Point", "coordinates": [60.4452854493389, 38.20492208626191]}}, {"type": "Feature", "properties": {"norad_id": 41019, "name": "GPS BIIF-11 (PRN 10)", "group": "gps-ops", "lat": 56.34548741349098, "lon": 117.28599239132966, "alt_km": 20417.703060156557, "timestamp": "2025-12-04T10:51:50.364596+00:00", "meta": {"OBJECT_NAME": "GPS BIIF-11 (PRN 10)", "OBJECT_ID": "2015-062A", "EPOCH": "2025-12-02T20:07:20.287200", "MEAN_MOTION": 2.00566746, "ECCENTRICITY": 0.01105435, "INCLINATION": 56.8251, "RA_OF_ASC_NODE": 38.3854, "ARG_OF_PERICENTER": 229.6764, "MEAN_ANOMALY": 129.4032, "EPHEMERIS_TYPE": 0, "CLASSIFICATION_TYPE": "U", "NORAD_CAT_ID": 41019, "ELEMENT_SET_NO": 999, "REV_AT_EPOCH": 7389, "BSTAR": 0, "MEAN_MOTION_DOT": -6.5e-07, "MEAN_MOTION_DDOT": 0}, "tle": {"line1": "1 41019U 15062A   25336.83842925 -.00000065  00000+0  00000+0 0  9999", "line2": "2 41019  56.8251  38.3854 0110543 229.6764 129.4032  2.00566746 73899"}}, "geometry": {"type": "Point", "coordinates": [117.28599239132966, 56.34548741349098]}}, {"type": "Feature", "properties": {"norad_id": 41328, "name": "GPS BIIF-12 (PRN 32)", "group": "gps-ops", "lat": 21.03282002928778, "lon": 112.54949614396023, "alt_km": 20372.150035571325, "timestamp": "2025-12-04T10:51:50.364607+00:00", "meta": {"OBJECT_NAME": "GPS BIIF-12 (PRN 32)", "OBJECT_ID": "2016-007A", "EPOCH": "2025-12-02T10:07:51.557664", "MEAN_MOTION": 2.00561137, "ECCENTRICITY": 0.0091655, "INCLINATION": 55.4002, "RA_OF_ASC_NODE": 97.2666, "ARG_OF_PERICENTER": 243.3201, "MEAN_ANOMALY": 115.7158, "EPHEMERIS_TYPE": 0, "CLASSIFICATION_TYPE": "U", "NORAD_CAT_ID": 41328, "ELEMENT_SET_NO": 999, "REV_AT_EPOCH": 7189, "BSTAR": 0, "MEAN_MOTION_DOT": 6e-08, "MEAN_MOTION_DDOT": 0}, "tle": {"line1": "1 41328U 16007A   25336.42212451  .00000006  00000+0  00000+0 0  9996", "line2": "2 41328  55.4002  97.2666 0091655 243.3201 115.7158  2.00561137 71891"}}, "geometry": {"type": "Point", "coordinates": [112.54949614396023, 21.03282002928778]}}, {"type": "Feature", "properties": {"norad_id": 43873, "name": "GPS BIII-1  (PRN 04)", "group": "gps-ops", "lat": -54.18930981347593, "lon": 28.029167639793293, "alt_km": 20181.802407509593, "timestamp": "2025-12-04T10:51:50.364618+00:00", "meta": {"OBJECT_NAME": "GPS BIII-1  (PRN 04)", "OBJECT_ID": "2018-109A", "EPOCH": "2025-12-02T13:53:48.865056", "MEAN_MOTION": 2.00553145, "ECCENTRICITY": 0.00371805, "INCLINATION": 55.5613, "RA_OF_ASC_NODE": 99.9484, "ARG_OF_PERICENTER": 194.5324, "MEAN_ANOMALY": 172.7169, "EPHEMERIS_TYPE": 0, "CLASSIFICATION_TYPE": "U", "NORAD_CAT_ID": 43873, "ELEMENT_SET_NO": 999, "REV_AT_EPOCH": 5113, "BSTAR": 0, "MEAN_MOTION_DOT": 1e-07, "MEAN_MOTION_DDOT": 0}, "tle": {"line1": "1 43873U 18109A   25336.57903779  .00000010  00000+0  00000+0 0  9999", "line2": "2 43873  55.5613  99.9484 0037180 194.5324 172.7169  2.00553145 51130"}}, "geometry": {"type": "Point", "coordinates": [28.029167639793293, -54.18930981347593]}}, {"type": "Feature", "properties": {"norad_id": 44506, "name": "GPS BIII-2  (PRN 18)", "group": "gps-ops", "lat": 2.9416862359497826, "lon": 156.8719075752495, "alt_km": 20039.83374873951, "timestamp": "2025-12-04T10:51:50.364629+00:00", "meta": {"OBJECT_NAME": "GPS BIII-2  (PRN 18)", "OBJECT_ID": "2019-056A", "EPOCH": "2025-12-02T10:49:28.764768", "MEAN_MOTION": 2.00565569, "ECCENTRICITY": 0.00578163, "INCLINATION": 55.7251, "RA_OF_ASC_NODE": 338.9617, "ARG_OF_PERICENTER": 198.402, "MEAN_ANOMALY": 332.9603, "EPHEMERIS_TYPE": 0, "CLASSIFICATION_TYPE": "U", "NORAD_CAT_ID": 44506, "ELEMENT_SET_NO": 999, "REV_AT_EPOCH": 4612, "BSTAR": 0, "MEAN_MOTION_DOT": -6.1e-07, "MEAN_MOTION_DDOT": 0}, "tle": {"line1": "1 44506U 19056A   25336.45102737 -.00000061  00000+0  00000+0 0  9994", "line2": "2 44506  55.7251 338.9617 0057816 198.4020 332.9603  2.00565569 46121"}}, "geometry": {"type": "Point", "coordinates": [156.8719075752495, 2.9416862359497826]}}, {"type": "Feature", "properties": {"norad_id": 45854, "name": "GPS BIII-3  (PRN 23)", "group": "gps-ops", "lat": 46.169911469940175, "lon": 173.04640048750406, "alt_km": 20156.274390449526, "timestamp": "2025-12-04T10:51:50.364640+00:00", "meta": {"OBJECT_NAME": "GPS BIII-3  (PRN 23)", "OBJECT_ID": "2020-041A", "EPOCH": "2025-12-03T06:48:38.769120", "MEAN_MOTION": 2.00561684, "ECCENTRICITY": 0.0060262, "INCLINATION": 56.5402, "RA_OF_ASC_NODE": 36.5545, "ARG_OF_PERICENTER": 203.0015, "MEAN_ANOMALY": 153.8862, "EPHEMERIS_TYPE": 0, "CLASSIFICATION_TYPE": "U", "NORAD_CAT_ID": 45854, "ELEMENT_SET_NO": 999, "REV_AT_EPOCH": 4010, "BSTAR": 0, "MEAN_MOTION_DOT": -6.6e-07, "MEAN_MOTION_DDOT": 0}, "tle": {"line1": "1 45854U 20041A   25337.28378205 -.00000066  00000+0  00000+0 0  9999", "line2": "2 45854  56.5402  36.5545 0060262 203.0015 153.8862  2.00561684 40105"}}, "geometry": {"type": "Point", "coordinates": [173.04640048750406, 46.169911469940175]}}, {"type": "Feature", "properties": {"norad_id": 46826, "name": "GPS BIII-4  (PRN 14)", "group": "gps-ops", "lat": 54.017583513864345, "lon": -49.82006165220091, "alt_km": 20241.867634482023, "timestamp": "2025-12-04T10:51:50.364656+00:00", "meta": {"OBJECT_NAME": "GPS BIII-4  (PRN 14)", "OBJECT_ID": "2020-078A", "EPOCH": "2025-11-12T03:01:29.190720", "MEAN_MOTION": 2.00567032, "ECCENTRICITY": 0.0063911, "INCLINATION": 54.0223, "RA_OF_ASC_NODE": 219.5836, "ARG_OF_PERICENTER": 203.4986, "MEAN_ANOMALY": 326.7754, "EPHEMERIS_TYPE": 0, "CLASSIFICATION_TYPE": "U", "NORAD_CAT_ID": 46826, "ELEMENT_SET_NO": 999, "REV_AT_EPOCH": 3715, "BSTAR": 0, "MEAN_MOTION_DOT": -3.4e-07, "MEAN_MOTION_DDOT": 0}, "tle": {"line1": "1 46826U 20078A   25316.12603230 -.00000034  00000+0  00000+0 0  9993", "line2": "2 46826  54.0223 219.5836 0063911 203.4986 326.7754  2.00567032 37155"}}, "geometry": {"type": "Point", "coordinates": [-49.82006165220091, 54.017583513864345]}}, {"type": "Feature", "properties": {"norad_id": 48859, "name": "GPS BIII-5  (PRN 11)", "group": "gps-ops", "lat": -54.51906706334635, "lon": -96.52436811516931, "alt_km": 20142.029207388026, "timestamp": "2025-12-04T10:51:50.364667+00:00", "meta": {"OBJECT_NAME": "GPS BIII-5  (PRN 11)", "OBJECT_ID": "2021-054A", "EPOCH": "2025-11-30T17:12:22.002912", "MEAN_MOTION": 2.00553932, "ECCENTRICITY": 0.0024653, "INCLINATION": 55.2606, "RA_OF_ASC_NODE": 340.4377, "ARG_OF_PERICENTER": 232.9477, "MEAN_ANOMALY": 227.2059, "EPHEMERIS_TYPE": 0, "CLASSIFICATION_TYPE": "U", "NORAD_CAT_ID": 48859, "ELEMENT_SET_NO": 999, "REV_AT_EPOCH": 3277, "BSTAR": 0, "MEAN_MOTION_DOT": -5.5e-07, "MEAN_MOTION_DDOT": 0}, "tle": {"line1": "1 48859U 21054A   25334.71692133 -.00000055  00000+0  00000+0 0  9994", "line2": "2 48859  55.2606 340.4377 0024653 232.9477 227.2059  2.00553932 32777"}}, "geometry": {"type": "Point", "coordinates": [-96.52436811516931, -54.51906706334635]}}, {"type": "Feature", "properties": {"norad_id": 55268, "name": "GPS BIII-6  (PRN 28)", "group": "gps-ops", "lat": -32.04865606933922, "lon": 130.24012762652293, "alt_km": 20179.339616933456, "timestamp": "2025-12-04T10:51:50.364679+00:00", "meta": {"OBJECT_NAME": "GPS BIII-6  (PRN 28)", "OBJECT_ID": "2023-009A", "EPOCH": "2025-12-02T18:24:38.544192", "MEAN_MOTION": 2.00556378, "ECCENTRICITY": 0.00036484, "INCLINATION": 55.1064, "RA_OF_ASC_NODE": 156.2374, "ARG_OF_PERICENTER": 358.5606, "MEAN_ANOMALY": 184.14, "EPHEMERIS_TYPE": 0, "CLASSIFICATION_TYPE": "U", "NORAD_CAT_ID": 55268, "ELEMENT_SET_NO": 999, "REV_AT_EPOCH": 2130, "BSTAR": 0, "MEAN_MOTION_DOT": 1.13e-06, "MEAN_MOTION_DDOT": 0}, "tle": {"line1": "1 55268U 23009A   25336.76711278  .00000113  00000+0  00000+0 0  9991", "line2": "2 55268  55.1064 156.2374 0003648 358.5606 184.1400  2.00556378 21301"}}, "geometry": {"type": "Point", "coordinates": [130.24012762652293, -32.04865606933922]}}]}